[{"OBJECT_NAME":"ONEWEB-0056","OBJECT_ID":"2020-008AE","EPOCH":"2026-05-26T05:11:12.779232","MEAN_MOTION":13.10371198,"ECCENTRICITY":0.0001736,"INCLINATION":87.8862,"RA_OF_ASC_NODE":40.6335,"ARG_OF_PERICENTER":88.7302,"MEAN_ANOMALY":271.4024,"EPHEMERIS_TYPE":0,"CLASSIFICATION_TYPE":"U","NORAD_CAT_ID":45159,"ELEMENT_SET_NO":999,"REV_AT_EPOCH":30530,"BSTAR":0.00070793,"MEAN_MOTION_DOT":2.6e-06,"MEAN_MOTION_DDOT":0.0},{"OBJECT_NAME":"ONEWEB-0057","OBJECT_ID":"2020-008AF","EPOCH":"2026-05-26T05:35:31.387488","MEAN_MOTION":13.10374448,"ECCENTRICITY":0.000236,"INCLINATION":87.8856,"RA_OF_ASC_NODE":40.6429,"ARG_OF_PERICENTER":80.8212,"MEAN_ANOMALY":279.3182,"EPHEMERIS_TYPE":0,"CLASSIFICATION_TYPE":"U","NORAD_CAT_ID":45160,"ELEMENT_SET_NO":999,"REV_AT_EPOCH":30547,"BSTAR":0.0019842,"MEAN_MOTION_DOT":7.05e-06,"MEAN_MOTION_DDOT":0.0},{"OBJECT_NAME":"ONEWEB-0058","OBJECT_ID":"2020-008AG","EPOCH":"2026-05-26T05:16:23.378592","MEAN_MOTION":13.10376915,"ECCENTRICITY":0.0001701,"INCLINATION":87.8856,"RA_OF_ASC_NODE":40.6526,"ARG_OF_PERICENTER":72.4502,"MEAN_ANOMALY":287.6811,"EPHEMERIS_TYPE":0,"CLASSIFICATION_TYPE":"U","NORAD_CAT_ID":45161,"ELEMENT_SET_NO":999,"REV_AT_EPOCH":30554,"BSTAR":0.0007629500000000001,"MEAN_MOTION_DOT":2.79e-06,"MEAN_MOTION_DDOT":0.0},{"OBJECT_NAME":"ONEWEB-0059","OBJECT_ID":"2020-008AH","EPOCH":"2026-05-26T05:11:36.991968","MEAN_MOTION":13.10372224,"ECCENTRICITY":0.0001891,"INCLINATION":87.8856,"RA_OF_ASC_NODE":40.6522,"ARG_OF_PERICENTER":73.6295,"MEAN_ANOMALY":286.504,"EPHEMERIS_TYPE":0,"CLASSIFICATION_TYPE":"U","NORAD_CAT_ID":45162,"ELEMENT_SET_NO":999,"REV_AT_EPOCH":30544,"BSTAR":0.00044973999999999996,"MEAN_MOTION_DOT":1.7e-06,"MEAN_MOTION_DDOT":0.0},{"OBJECT_NAME":"ONEWEB-0062","OBJECT_ID":"2020-008AJ","EPOCH":"2026-05-26T05:44:41.124768","MEAN_MOTION":13.10371429,"ECCENTRICITY":0.0001422,"INCLINATION":87.8857,"RA_OF_ASC_NODE":40.6335,"ARG_OF_PERICENTER":72.7642,"MEAN_ANOMALY":287.3641,"EPHEMERIS_TYPE":0,"CLASSIFICATION_TYPE":"U","NORAD_CAT_ID":45163,"ELEMENT_SET_NO":999,"REV_AT_EPOCH":30531,"BSTAR":0.0017243,"MEAN_MOTION_DOT":6.15e-06,"MEAN_MOTION_DDOT":0.0},{"OBJECT_NAME":"ONEWEB-0065","OBJECT_ID":"2020-008AK","EPOCH":"2026-05-26T06:32:27.926880","MEAN_MOTION":13.10373575,"ECCENTRICITY":0.0002122,"INCLINATION":87.8861,"RA_OF_ASC_NODE":40.635,"ARG_OF_PERICENTER":86.8025,"MEAN_ANOMALY":273.3345,"EPHEMERIS_TYPE":0,"CLASSIFICATION_TYPE":"U","NORAD_CAT_ID":45164,"ELEMENT_SET_NO":999,"REV_AT_EPOCH":30501,"BSTAR":-0.0018574,"MEAN_MOTION_DOT":-6.36e-06,"MEAN_MOTION_DDOT":0.0},{"OBJECT_NAME":"ONEWEB-0066","OBJECT_ID":"2020-020A","EPOCH":"2026-05-26T04:09:26.654688","MEAN_MOTION":13.11418923,"ECCENTRICITY":0.0001846,"INCLINATION":87.8912,"RA_OF_ASC_NODE":25.4511,"ARG_OF_PERICENTER":76.1416,"MEAN_ANOMALY":283.9918,"EPHEMERIS_TYPE":0,"CLASSIFICATION_TYPE":"U","NORAD_CAT_ID":45424,"ELEMENT_SET_NO":999,"REV_AT_EPOCH":29979,"BSTAR":0.00044338,"MEAN_MOTION_DOT":1.7e-06,"MEAN_MOTION_DDOT":0.0},{"OBJECT_NAME":"ONEWEB-0067","OBJECT_ID":"2020-020B","EPOCH":"2026-05-26T05:04:09.122880","MEAN_MOTION":13.11421338,"ECCENTRICITY":0.0001975,"INCLINATION":87.8926,"RA_OF_ASC_NODE":25.3617,"ARG_OF_PERICENTER":84.4345,"MEAN_ANOMALY":275.7008,"EPHEMERIS_TYPE":0,"CLASSIFICATION_TYPE":"U","NORAD_CAT_ID":45425,"ELEMENT_SET_NO":999,"REV_AT_EPOCH":29985,"BSTAR":-6.4843e-05,"MEAN_MOTION_DOT":-1e-07,"MEAN_MOTION_DDOT":0.0},{"OBJECT_NAME":"ONEWEB-0080","OBJECT_ID":"2020-020C","EPOCH":"2026-05-26T03:13:29.084160","MEAN_MOTION":13.11414166,"ECCENTRICITY":0.0001481,"INCLINATION":87.8917,"RA_OF_ASC_NODE":25.4533,"ARG_OF_PERICENTER":78.2612,"MEAN_ANOMALY":281.8682,"EPHEMERIS_TYPE":0,"CLASSIFICATION_TYPE":"U","NORAD_CAT_ID":45426,"ELEMENT_SET_NO":999,"REV_AT_EPOCH":29981,"BSTAR":5.4068000000000005e-05,"MEAN_MOTION_DOT":3.2e-07,"MEAN_MOTION_DDOT":0.0},{"OBJECT_NAME":"ONEWEB-0090","OBJECT_ID":"2020-020D","EPOCH":"2026-05-26T03:54:59.049216","MEAN_MOTION":13.11418594,"ECCENTRICITY":0.0001711,"INCLINATION":87.8917,"RA_OF_ASC_NODE":25.4522,"ARG_OF_PERICENTER":81.8175,"MEAN_ANOMALY":278.3147,"EPHEMERIS_TYPE":0,"CLASSIFICATION_TYPE":"U","NORAD_CAT_ID":45427,"ELEMENT_SET_NO":999,"REV_AT_EPOCH":29978,"BSTAR":-0.00088728,"MEAN_MOTION_DOT":-3.02e-06,"MEAN_MOTION_DDOT":0.0},{"OBJECT_NAME":"ONEWEB-0061","OBJECT_ID":"2020-020E","EPOCH":"2026-05-26T02:51:07.426944","MEAN_MOTION":13.11415722,"ECCENTRICITY":0.0001767,"INCLINATION":87.8915,"RA_OF_ASC_NODE":25.4461,"ARG_OF_PERICENTER":80.1608,"MEAN_ANOMALY":279.9719,"EPHEMERIS_TYPE":0,"CLASSIFICATION_TYPE":"U","NORAD_CAT_ID":45428,"ELEMENT_SET_NO":999,"REV_AT_EPOCH":29973,"BSTAR":0.0015886000000000001,"MEAN_MOTION_DOT":5.76e-06,"MEAN_MOTION_DDOT":0.0},{"OBJECT_NAME":"ONEWEB-0081","OBJECT_ID":"2020-020F","EPOCH":"2026-05-26T04:14:20.040576","MEAN_MOTION":13.11419477,"ECCENTRICITY":0.0001959,"INCLINATION":87.8911,"RA_OF_ASC_NODE":25.4458,"ARG_OF_PERICENTER":78.5951,"MEAN_ANOMALY":281.5397,"EPHEMERIS_TYPE":0,"CLASSIFICATION_TYPE":"U","NORAD_CAT_ID":45429,"ELEMENT_SET_NO":999,"REV_AT_EPOCH":29985,"BSTAR":0.00090949,"MEAN_MOTION_DOT":3.35e-06,"MEAN_MOTION_DDOT":0.0},{"OBJECT_NAME":"ONEWEB-0069","OBJECT_ID":"2020-020G","EPOCH":"2026-05-26T04:16:59.061504","MEAN_MOTION":13.10909741,"ECCENTRICITY":0.0001878,"INCLINATION":87.8913,"RA_OF_ASC_NODE":25.4479,"ARG_OF_PERICENTER":80.1237,"MEAN_ANOMALY":280.0103,"EPHEMERIS_TYPE":0,"CLASSIFICATION_TYPE":"U","NORAD_CAT_ID":45430,"ELEMENT_SET_NO":999,"REV_AT_EPOCH":29978,"BSTAR":0.016047000000000002,"MEAN_MOTION_DOT":5.662e-05,"MEAN_MOTION_DDOT":0.0},{"OBJECT_NAME":"ONEWEB-0031","OBJECT_ID":"2020-020H","EPOCH":"2026-05-26T05:08:02.198112","MEAN_MOTION":13.11414511,"ECCENTRICITY":0.0001604,"INCLINATION":87.8903,"RA_OF_ASC_NODE":25.4478,"ARG_OF_PERICENTER":80.9607,"MEAN_ANOMALY":279.1703,"EPHEMERIS_TYPE":0,"CLASSIFICATION_TYPE":"U","NORAD_CAT_ID":45431,"ELEMENT_SET_NO":999,"REV_AT_EPOCH":29977,"BSTAR":-0.00032587,"MEAN_MOTION_DOT":-1.03e-06,"MEAN_MOTION_DDOT":0.0},{"OBJECT_NAME":"ONEWEB-0027","OBJECT_ID":"2020-020J","EPOCH":"2026-05-26T03:24:30.902112","MEAN_MOTION":13.16053075,"ECCENTRICITY":0.0001554,"INCLINATION":87.9159,"RA_OF_ASC_NODE":10.2374,"ARG_OF_PERICENTER":93.8731,"MEAN_ANOMALY":266.2578,"EPHEMERIS_TYPE":0,"CLASSIFICATION_TYPE":"U","NORAD_CAT_ID":45432,"ELEMENT_SET_NO":999,"REV_AT_EPOCH":30345,"BSTAR":0.00027808,"MEAN_MOTION_DOT":1.18e-06,"MEAN_MOTION_DDOT":0.0},{"OBJECT_NAME":"ONEWEB-0064","OBJECT_ID":"2020-020K","EPOCH":"2026-05-26T05:05:36.399840","MEAN_MOTION":13.11415781,"ECCENTRICITY":0.0001619,"INCLINATION":87.8907,"RA_OF_ASC_NODE":25.439,"ARG_OF_PERICENTER":84.058,"MEAN_ANOMALY":276.0732,"EPHEMERIS_TYPE":0,"CLASSIFICATION_TYPE":"U","NORAD_CAT_ID":45433,"ELEMENT_SET_NO":999,"REV_AT_EPOCH":29980,"BSTAR":-5.092100000000001e-05,"MEAN_MOTION_DOT":-5e-08,"MEAN_MOTION_DDOT":0.0}]