ONEWEB-0056             
1 45159U 20008AE  26146.21612013  .00000260  00000+0  70793-3 0  9995
2 45159  87.8862  40.6335 0001736  88.7302 271.4024 13.10371198305306
ONEWEB-0057             
1 45160U 20008AF  26146.23300217  .00000705  00000+0  19842-2 0  9990
2 45160  87.8856  40.6429 0002360  80.8212 279.3182 13.10374448305473
ONEWEB-0058             
1 45161U 20008AG  26146.21971503  .00000279  00000+0  76295-3 0  9993
2 45161  87.8856  40.6526 0001701  72.4502 287.6811 13.10376915305549
ONEWEB-0059             
1 45162U 20008AH  26146.21640037  .00000170  00000+0  44974-3 0  9998
2 45162  87.8856  40.6522 0001891  73.6295 286.5040 13.10372224305448
ONEWEB-0062             
1 45163U 20008AJ  26146.23936487  .00000615  00000+0  17243-2 0  9990
2 45163  87.8857  40.6335 0001422  72.7642 287.3641 13.10371429305316
ONEWEB-0065             
1 45164U 20008AK  26146.27254545 -.00000636  00000+0 -18574-2 0  9996
2 45164  87.8861  40.6350 0002122  86.8025 273.3345 13.10373575305015
ONEWEB-0066             
1 45424U 20020A   26146.17322517  .00000170  00000+0  44338-3 0  9992
2 45424  87.8912  25.4511 0001846  76.1416 283.9918 13.11418923299797
ONEWEB-0067             
1 45425U 20020B   26146.21121670 -.00000010  00000+0 -64843-4 0  9994
2 45425  87.8926  25.3617 0001975  84.4345 275.7008 13.11421338299855
ONEWEB-0080             
1 45426U 20020C   26146.13436440  .00000032  00000+0  54068-4 0  9990
2 45426  87.8917  25.4533 0001481  78.2612 281.8682 13.11414166299817
ONEWEB-0090             
1 45427U 20020D   26146.16318344 -.00000302  00000+0 -88728-3 0  9997
2 45427  87.8917  25.4522 0001711  81.8175 278.3147 13.11418594299788
ONEWEB-0061             
1 45428U 20020E   26146.11883596  .00000576  00000+0  15886-2 0  9994
2 45428  87.8915  25.4461 0001767  80.1608 279.9719 13.11415722299730
ONEWEB-0081             
1 45429U 20020F   26146.17662084  .00000335  00000+0  90949-3 0  9995
2 45429  87.8911  25.4458 0001959  78.5951 281.5397 13.11419477299853
ONEWEB-0069             
1 45430U 20020G   26146.17846136  .00005662  00000+0  16047-1 0  9992
2 45430  87.8913  25.4479 0001878  80.1237 280.0103 13.10909741299784
ONEWEB-0031             
1 45431U 20020H   26146.21391433 -.00000103  00000+0 -32587-3 0  9999
2 45431  87.8903  25.4478 0001604  80.9607 279.1703 13.11414511299770
ONEWEB-0027             
1 45432U 20020J   26146.14202433  .00000118  00000+0  27808-3 0  9997
2 45432  87.9159  10.2374 0001554  93.8731 266.2578 13.16053075303454
ONEWEB-0064             
1 45433U 20020K   26146.21222685 -.00000005  00000+0 -50921-4 0  9997
2 45433  87.8907  25.4390 0001619  84.0580 276.0732 13.11415781299802
